STARLINK-3210           
1 49755U 21115AH  26068.53626718 -.00002559  00000+0 -14279-3 0  9998
2 49755  53.2171 149.8550 0001288  89.9257 270.1883 15.08824357235510
DISKSAT B               
1 67220U 25305B   26068.81497770  .00012481  00000+0  82401-3 0  9990
2 67220  45.0018 250.2098 0003783 311.4052  48.6498 15.07484556 12311
